NORAD_CAT_ID,OBJECT_NAME,OBJECT_TYPE,EPOCH,MEAN_MOTION,ECCENTRICITY,INCLINATION,RA_OF_ASC_NODE,ARG_OF_PERICENTER,MEAN_ANOMALY,BSTAR,MEAN_MOTION_DOT,MEAN_MOTION_DDOT,TLE_LINE0,TLE_LINE1,TLE_LINE2,SEMIMAJOR_AXIS,PERIOD,APOGEE,PERIGEE,DECAYED
53820.0,STARLINK-4758,PAYLOAD,2023-05-26 03:38:27,15.0884029,9.86e-05,53.2162,196.7367,79.6886,280.4217,8.908e-05,1.13e-05,0.0,0 STARLINK-4758,1 53820U 22114C   23146.15171258  .00001130  00000-0  89080-4 0  9998,2 53820  53.2162 196.7367 0000986  79.6886 280.4217 15.08840290 38524,6917.88,95.438,540.427,539.062,0.0
53820.0,STARLINK-4758,PAYLOAD,2023-05-26 13:10:46,15.0884217,9.6e-05,53.2154,194.9513,83.9265,276.1837,5.9934e-05,6.66e-06,0.0,0 STARLINK-4758,1 53820U 22114C   23146.54915090  .00000666  00000-0  59934-4 0  9999,2 53820  53.2154 194.9513 0000960  83.9265 276.1837 15.08842170 39125,6917.874,95.437,540.403,539.075,0.0
53820.0,STARLINK-4758,PAYLOAD,2023-05-27 09:50:47,15.08840729,9.45e-05,53.215,191.0853,87.1486,272.9615,1.2215e-05,-9.3e-07,0.0,0 STARLINK-4758,1 53820U 22114C   23147.41027175 -.00000093  00000-0  12215-4 0  9990,2 53820  53.2150 191.0853 0000945  87.1486 272.9615 15.08840729 38710,6917.878,95.438,540.397,539.089,0.0
53820.0,STARLINK-4758,PAYLOAD,2023-05-27 19:23:06,15.08838191,9.38e-05,53.2149,189.3012,85.7703,274.3396,1.4463e-05,-5.8e-07,0.0,0 STARLINK-4758,1 53820U 22114C   23147.80771337 -.00000058  00000-0  14463-4 0  9997,2 53820  53.2149 189.3012 0000938  85.7703 274.3396 15.08838191 39312,6917.886,95.438,540.4,539.102,0.0
53820.0,STARLINK-4758,PAYLOAD,2023-05-28 06:30:48,15.08837247,9.41e-05,53.2149,187.2199,86.517,273.593,4.214e-05,3.83e-06,0.0,0 STARLINK-4758,1 53820U 22114C   23148.27139401  .00000383  00000-0  42140-4 0  9992,2 53820  53.2149 187.2199 0000941  86.5170 273.5930 15.08837247 39389,6917.889,95.438,540.405,539.103,0.0
53820.0,STARLINK-4758,PAYLOAD,2023-05-28 19:13:53,15.08839841,9.64e-05,53.2147,184.8406,84.9729,275.1373,5.8161e-05,6.38e-06,0.0,0 STARLINK-4758,1 53820U 22114C   23148.80131244  .00000638  00000-0  58161-4 0  9991,2 53820  53.2147 184.8406 0000964  84.9729 275.1373 15.08839841 38928,6917.881,95.438,540.413,539.079,0.0
53820.0,STARLINK-4758,PAYLOAD,2023-05-29 11:07:44,15.08842216,9.68e-05,53.215,181.8675,85.711,274.3993,7.36e-05,8.84e-06,0.0,0 STARLINK-4758,1 53820U 22114C   23149.46371069  .00000884  00000-0  73600-4 0  9993,2 53820  53.2150 181.8675 0000968  85.7110 274.3993 15.08842216 39564,6917.874,95.437,540.408,539.069,0.0
53820.0,STARLINK-4758,PAYLOAD,2023-05-29 19:04:40,15.08835472,9.98e-05,53.2149,180.3805,87.1056,273.005,2.469e-05,1.05e-06,0.0,0 STARLINK-4758,1 53820U 22114C   23149.79491657  .00000105  00000-0  24690-4 0  9996,2 53820  53.2149 180.3805 0000998  87.1056 273.0050 15.08835472 39611,6917.894,95.438,540.45,539.069,0.0
53820.0,STARLINK-4758,PAYLOAD,2023-05-30 01:26:13,15.08835549,0.0001013,53.2149,179.1905,91.2538,268.857,1.5223e-05,-4.5e-07,0.0,0 STARLINK-4758,1 53820U 22114C   23150.05987728 -.00000045  00000-0  15223-4 0  9992,2 53820  53.2149 179.1905 0001013  91.2538 268.8570 15.08835549 39117,6917.894,95.438,540.46,539.058,0.0
53820.0,STARLINK-4758,PAYLOAD,2023-05-30 09:23:09,15.08833523,0.0001015,53.215,177.7035,91.0771,269.0338,4.8435e-06,-2.11e-06,0.0,0 STARLINK-4758,1 53820U 22114C   23150.39107990 -.00000211  00000-0  48435-5 0  9991,2 53820  53.2150 177.7035 0001015  91.0771 269.0338 15.08833523 39706,6917.9,95.438,540.467,539.063,0.0
53820.0,STARLINK-4758,PAYLOAD,2023-05-30 18:55:28,15.08835868,0.0001025,53.2151,175.9191,88.4442,271.6667,1.007e-05,-1.28e-06,0.0,0 STARLINK-4758,1 53820U 22114C   23150.78851932 -.00000128  00000-0  10070-4 0  9996,2 53820  53.2151 175.9191 0001025  88.4442 271.6667 15.08835868 39760,6917.893,95.438,540.467,539.049,0.0
53820.0,STARLINK-4758,PAYLOAD,2023-05-31 10:49:19,15.08838713,0.0001083,53.2157,172.9453,86.8439,273.2677,2.2417e-05,6.9e-07,0.0,0 STARLINK-4758,1 53820U 22114C   23151.45091851  .00000069  00000-0  22417-4 0  9998,2 53820  53.2157 172.9453 0001083  86.8439 273.2677 15.08838713 39329,6917.884,95.438,540.499,539.0,0.0
53820.0,STARLINK-4758,PAYLOAD,2023-06-01 07:29:19,15.08841482,9.92e-05,53.2153,169.0795,86.0528,274.0578,0.00011149,1.487e-05,0.0,0 STARLINK-4758,1 53820U 22114C   23152.31203449  .00001487  00000-0  11149-3 0  9996,2 53820  53.2153 169.0795 0000992  86.0528 274.0578 15.08841482 39999,6917.876,95.437,540.427,539.055,0.0
53820.0,STARLINK-4758,PAYLOAD,2023-06-02 10:30:53,15.08841154,9.88e-05,53.2153,164.0248,88.6929,271.4176,4.9134e-05,4.94e-06,0.0,0 STARLINK-4758,1 53820U 22114C   23153.43811635  .00000494  00000-0  49134-4 0  9995,2 53820  53.2153 164.0248 0000988  88.6929 271.4176 15.08841154 39626,6917.877,95.437,540.425,539.058,0.0
53820.0,STARLINK-4758,PAYLOAD,2023-06-03 10:21:40,15.08839374,0.0001002,53.2151,159.5639,89.2447,270.866,5.0923e-06,-2.07e-06,0.0,0 STARLINK-4758,1 53820U 22114C   23154.43171893 -.00000207  00000-0  50923-5 0  9993,2 53820  53.2151 159.5639 0001002  89.2447 270.8660 15.08839374 40317,6917.882,95.438,540.44,539.054,0.0
53820.0,STARLINK-4758,PAYLOAD,2023-06-04 00:40:08,15.08837329,9.87e-05,53.2153,156.8873,87.7578,272.3527,2.7226e-05,1.46e-06,0.0,0 STARLINK-4758,1 53820U 22114C   23155.02787973  .00000146  00000-0  27226-4 0  9991,2 53820  53.2153 156.8873 0000987  87.7578 272.3527 15.08837329 39863,6917.889,95.438,540.436,539.071,0.0
53820.0,STARLINK-4758,PAYLOAD,2023-06-04 05:26:18,15.08837664,9.93e-05,53.2154,155.9952,87.4441,272.6664,2.8383e-05,1.64e-06,0.0,0 STARLINK-4758,1 53820U 22114C   23155.22659981  .00000164  00000-0  28383-4 0  9995,2 53820  53.2154 155.9952 0000993  87.4441 272.6664 15.08837664 40437,6917.888,95.438,540.439,539.066,0.0
53820.0,STARLINK-4758,PAYLOAD,2023-06-05 03:41:42,15.08834978,9.78e-05,53.2154,151.8325,85.9662,274.1442,2.611e-05,1.28e-06,0.0,0 STARLINK-4758,1 53820U 22114C   23156.15396350  .00000128  00000-0  26110-4 0  9992,2 53820  53.2154 151.8325 0000978  85.9662 274.1442 15.08834978 40039,6917.896,95.438,540.437,539.084,0.0
53820.0,STARLINK-4758,PAYLOAD,2023-06-05 10:03:14,15.08836237,9.67e-05,53.2152,150.6432,84.6937,275.4165,3.1698e-05,2.17e-06,0.0,0 STARLINK-4758,1 53820U 22114C   23156.41892311  .00000217  00000-0  31698-4 0  9995,2 53820  53.2152 150.6432 0000967  84.6937 275.4165 15.08836237 40612,6917.892,95.438,540.426,539.088,0.0
53820.0,STARLINK-4758,PAYLOAD,2023-06-06 08:18:38,15.08839915,0.0001,53.2152,146.48,84.4648,275.6458,6.4096e-05,7.32e-06,0.0,0 STARLINK-4758,1 53820U 22114C   23157.34628168  .00000732  00000-0  64096-4 0  9995,2 53820  53.2152 146.4800 0001000  84.4648 275.6458 15.08839915 40219,6917.881,95.438,540.437,539.054,0.0
53820.0,STARLINK-4758,PAYLOAD,2023-06-07 08:09:25,15.0884107,0.0001025,53.2153,142.0193,84.8703,275.2406,7.3979e-05,8.9e-06,0.0,0 STARLINK-4758,1 53820U 22114C   23158.33988174  .00000890  00000-0  73979-4 0  9996,2 53820  53.2153 142.0193 0001025  84.8703 275.2406 15.08841070 40900,6917.877,95.437,540.451,539.033,0.0
53820.0,STARLINK-4758,PAYLOAD,2023-06-07 16:06:21,15.08836226,0.0001052,53.2152,140.5324,81.4959,278.6152,2.2113e-05,6.4e-07,0.0,0 STARLINK-4758,1 53820U 22114C   23158.67108687  .00000064  00000-0  22113-4 0  9993,2 53820  53.2152 140.5324 0001052  81.4959 278.6152 15.08836226 40412,6917.892,95.438,540.485,539.029,0.0
53820.0,STARLINK-4758,PAYLOAD,2023-06-07 22:27:54,15.08835535,0.0001113,53.2152,139.3425,82.7788,277.333,4.196e-06,-2.21e-06,0.0,0 STARLINK-4758,1 53820U 22114C   23158.93604863 -.00000221  00000-0  41960-5 0  9997,2 53820  53.2152 139.3425 0001113  82.7788 277.3330 15.08835535 40991,6917.894,95.438,540.529,538.989,0.0
53820.0,STARLINK-4758,PAYLOAD,2023-06-08 04:49:27,15.08835958,0.0001106,53.2153,138.153,82.5742,277.5376,-2.5434e-06,-3.28e-06,0.0,0 STARLINK-4758,1 53820U 22114C   23159.20100924 -.00000328  00000-0 -25434-5 0  9994,2 53820  53.2153 138.1530 0001106  82.5742 277.5376 15.08835958 41033,6917.893,95.438,540.523,538.993,0.0
53820.0,STARLINK-4758,PAYLOAD,2023-06-08 22:18:41,15.08843396,0.0001108,53.2153,134.882,81.9055,278.2063,7.1211e-05,8.46e-06,0.0,0 STARLINK-4758,1 53820U 22114C   23159.92964221  .00000846  00000-0  71211-4 0  9997,2 53820  53.2153 134.8820 0001108  81.9055 278.2063 15.08843396 40608,6917.87,95.437,540.502,538.969,0.0
53820.0,STARLINK-4758,PAYLOAD,2023-06-09 03:04:50,15.08845706,0.0001107,53.2154,133.9899,82.0306,278.0812,8.8417e-05,1.12e-05,0.0,0 STARLINK-4758,1 53820U 22114C   23160.12835991  .00001120  00000-0  88417-4 0  9994,2 53820  53.2154 133.9899 0001107  82.0306 278.0812 15.08845706 41175,6917.863,95.437,540.494,538.962,0.0
53820.0,STARLINK-4758,PAYLOAD,2023-06-09 15:47:54,15.088483,0.0001123,53.2156,131.611,80.8025,279.3094,0.00011846,1.598e-05,0.0,0 STARLINK-4758,1 53820U 22114C   23160.65827509  .00001598  00000-0  11846-3 0  9998,2 53820  53.2156 131.6110 0001123  80.8025 279.3094 15.08848300 41258,6917.855,95.437,540.497,538.943,0.0
53820.0,STARLINK-4758,PAYLOAD,2023-06-09 23:44:51,15.08826327,0.0001116,53.2154,130.1231,88.7023,271.4097,0.0001439,2.002e-05,0.0,0 STARLINK-4758,1 53820U 22114C   23160.98948982  .00002002  00000-0  14390-3 0  9991,2 53820  53.2154 130.1231 0001116  88.7023 271.4097 15.08826327 40767,6917.922,95.438,540.559,539.015,0.0
53820.0,STARLINK-4758,PAYLOAD,2023-06-10 04:31:00,15.08837802,0.0001131,53.2154,129.2309,88.5183,271.5939,4.5306e-05,4.33e-06,0.0,0 STARLINK-4758,1 53820U 22114C   23161.18820593  .00000433  00000-0  45306-4 0  9999,2 53820  53.2154 129.2309 0001131  88.5183 271.5939 15.08837802 40793,6917.887,95.438,540.535,538.97,0.0
53820.0,STARLINK-4758,PAYLOAD,2023-06-10 22:00:15,15.08836162,0.0001162,53.2153,125.9597,91.1698,268.9427,-6.1226e-05,-1.262e-05,0.0,0 STARLINK-4758,1 53820U 22114C   23161.91685123 -.00001262  00000-0 -61226-4 0  9990,2 53820  53.2153 125.9597 0001162  91.1698 268.9427 15.08836162 41442,6917.892,95.438,540.561,538.953,0.0
